[
    {
        "Altitude(m)": 706980.1818072249,
        "Argument of Periapsis(deg)": 0.011390121186627068,
        "Eccentricity": 0.0,
        "Inclination(deg)": 45.0,
        "Latitude(deg)": 43.700572982560786,
        "Longitude(deg)": -68.87514178952028,
        "Mean Anomaly(deg)": -283.0122833525192,
        "RAAN(deg)": 319.98924805854176,
        "Satellite Name": "Constellation 1 1412",
        "Satellite Number": 1412,
        "Semi-Major Axis(m)": 7083131.272910544,
        "Time(s)": 190
    },
    {
        "Altitude(m)": 706983.1768660126,
        "Argument of Periapsis(deg)": 0.011450069192872472,
        "Eccentricity": 0.0,
        "Inclination(deg)": 45.0,
        "Latitude(deg)": 43.71391032139361,
        "Longitude(deg)": -68.79748995758369,
        "Mean Anomaly(deg)": -282.9515822122693,
        "RAAN(deg)": 319.98919146937624,
        "Satellite Name": "Constellation 1 1412",
        "Satellite Number": 1412,
        "Semi-Major Axis(m)": 7083131.272910544,
        "Time(s)": 191
    },
    {
        "Altitude(m)": 706986.1591935556,
        "Argument of Periapsis(deg)": 0.01151001719911788,
        "Eccentricity": 0.0,
        "Inclination(deg)": 45.0,
        "Latitude(deg)": 43.72718914399111,
        "Longitude(deg)": -68.71980195760824,
        "Mean Anomaly(deg)": -282.8908810720194,
        "RAAN(deg)": 319.98913488021066,
        "Satellite Name": "Constellation 1 1412",
        "Satellite Number": 1412,
        "Semi-Major Axis(m)": 7083131.272910544,
        "Time(s)": 192
    },
    {
        "Altitude(m)": 706989.1287722958,
        "Argument of Periapsis(deg)": 0.011569965205363285,
        "Eccentricity": 0.0,
        "Inclination(deg)": 45.0,
        "Latitude(deg)": 43.74040939786602,
        "Longitude(deg)": -68.64207808411837,
        "Mean Anomaly(deg)": -282.83017993176946,
        "RAAN(deg)": 319.9890782910451,
        "Satellite Name": "Constellation 1 1412",
        "Satellite Number": 1412,
        "Semi-Major Axis(m)": 7083131.272910544,
        "Time(s)": 193
    },
    {
        "Altitude(m)": 706992.0855847634,
        "Argument of Periapsis(deg)": 0.01162991321160869,
        "Eccentricity": 0.0,
        "Inclination(deg)": 45.0,
        "Latitude(deg)": 43.75357103070446,
        "Longitude(deg)": -68.56431812788699,
        "Mean Anomaly(deg)": -282.7694787915196,
        "RAAN(deg)": 319.98902170187955,
        "Satellite Name": "Constellation 1 1412",
        "Satellite Number": 1412,
        "Semi-Major Axis(m)": 7083131.272910544,
        "Time(s)": 194
    },
    {
        "Altitude(m)": 706995.0296135497,
        "Argument of Periapsis(deg)": 0.011689861217854095,
        "Eccentricity": 0.0,
        "Inclination(deg)": 45.0,
        "Latitude(deg)": 43.76667399036621,
        "Longitude(deg)": -68.486522384515,
        "Mean Anomaly(deg)": -282.7087776512697,
        "RAAN(deg)": 319.9889651127139,
        "Satellite Name": "Constellation 1 1412",
        "Satellite Number": 1412,
        "Semi-Major Axis(m)": 7083131.272910544,
        "Time(s)": 195
    },
    {
        "Altitude(m)": 706997.960841339,
        "Argument of Periapsis(deg)": 0.0117498092240995,
        "Eccentricity": 0.0,
        "Inclination(deg)": 45.0,
        "Latitude(deg)": 43.779718224886096,
        "Longitude(deg)": -68.40869098204286,
        "Mean Anomaly(deg)": -282.6480765110198,
        "RAAN(deg)": 319.9889085235484,
        "Satellite Name": "Constellation 1 1412",
        "Satellite Number": 1412,
        "Semi-Major Axis(m)": 7083131.272910544,
        "Time(s)": 196
    },
    {
        "Altitude(m)": 707000.8792508758,
        "Argument of Periapsis(deg)": 0.011809757230344905,
        "Eccentricity": 0.0,
        "Inclination(deg)": 45.0,
        "Latitude(deg)": 43.792703682474716,
        "Longitude(deg)": -68.3308240490469,
        "Mean Anomaly(deg)": -282.58737537076985,
        "RAAN(deg)": 319.9888519343828,
        "Satellite Name": "Constellation 1 1412",
        "Satellite Number": 1412,
        "Semi-Major Axis(m)": 7083131.272910544,
        "Time(s)": 197
    },
    {
        "Altitude(m)": 707003.7848249974,
        "Argument of Periapsis(deg)": 0.011869705236590313,
        "Eccentricity": 0.0,
        "Inclination(deg)": 45.0,
        "Latitude(deg)": 43.805630311519245,
        "Longitude(deg)": -68.25292171463822,
        "Mean Anomaly(deg)": -282.52667423052003,
        "RAAN(deg)": 319.9887953452172,
        "Satellite Name": "Constellation 1 1412",
        "Satellite Number": 1412,
        "Semi-Major Axis(m)": 7083131.272910544,
        "Time(s)": 198
    },
    {
        "Altitude(m)": 707006.6775466071,
        "Argument of Periapsis(deg)": 0.011929653242835719,
        "Eccentricity": 0.0,
        "Inclination(deg)": 45.0,
        "Latitude(deg)": 43.81849806058453,
        "Longitude(deg)": -68.17498410846143,
        "Mean Anomaly(deg)": -282.46597309027015,
        "RAAN(deg)": 319.9887387560517,
        "Satellite Name": "Constellation 1 1412",
        "Satellite Number": 1412,
        "Semi-Major Axis(m)": 7083131.272910544,
        "Time(s)": 199
    }
]